ONEWEB-0144             
1 47290U 20100AJ  24139.51179360 -.00000042  00000+0 -15154-3 0  9992
2 47290  87.8926 141.8958 0002344  83.0002 277.1393 13.12446171164920
ONEWEB-0145             
1 47291U 20100AK  24139.55943287 -.00000184  00000+0 -54574-3 0  9990
2 47291  87.8927 141.9105 0002167  86.8103 273.3273 13.12443496165128
ONEWEB-0146             
1 47292U 20100AL  24139.70714628  .00000019  00000+0  17363-4 0  9994
2 47292  87.8926 141.8639 0001776 100.1756 259.9573 13.12439412165056
ONEWEB-0147             
1 47293U 20100AM  24139.52132780  .00000271  00000+0  71809-3 0  9992
2 47293  87.8924 141.8960 0002382  91.7140 268.4261 13.12445175164925
ONEWEB-0115             
1 48042U 21025A   24139.83713814  .00000331  00000+0  87087-3 0  9991
2 48042  87.8901 111.3877 0001939  89.9513 270.1839 13.13472582153924
ONEWEB-0152             
1 48043U 21025B   24139.84984545  .00000064  00000+0  14137-3 0  9993
2 48043  87.8902 111.3814 0001979  88.0624 272.0732 13.13470941153889
ONEWEB-0153             
1 48044U 21025C   24139.82761532  .00000324  00000+0  85347-3 0  9991
2 48044  87.8904 111.3730 0002130  83.4894 276.6477 13.13472051153876
ONEWEB-0154             
1 48045U 21025D   24139.82443880  .00000307  00000+0  80656-3 0  9994
2 48045  87.8901 111.3859 0002090  86.6202 273.5166 13.13472498153831
